#cP2022  3 30  6  0  0.00000000     576 d+D   IGb14 EXT AIUB
## 2203 280800.00000000   300.00000000 59668 0.2500000000000
+   75   G01G02G03G04G05G06G07G08G09G10G11G12G13G14G15G16G17
+        G18G19G20G21G22G23G24G25G26G27G28G29G30G31G32R01R02
+        R03R04R05R07R08R09R12R13R14R15R17R18R19R21R24E01E02
+        E03E04E05E07E08E09E10E11E12E13E14E15E18E19E21E24E25
+        E26E27E30E31E33E34E36  0  0  0  0  0  0  0  0  0  0
++         6  7  6  8  7  7  7  6  6  7  8  7  7  7  7  7  7
++         8  7  7  7  7  7  7  6  6  7  7  8  6  7  6  8  6
++         7  7  7  7  6  6  8  8  8  7  7  7  8  8  8  6  6
++         7  7  6  6  6  6  6  7  6  7  7  6  6  7  6  7  7
++         7  6  5  6  6  7  7  0  0  0  0  0  0  0  0  0  0
%c M  cc GPS ccc cccc cccc cccc cccc ccccc ccccc ccccc ccccc
%c cc cc ccc ccc cccc cccc cccc cccc ccccc ccccc ccccc ccccc
%f  1.2500000  1.025000000  0.00000000000  0.000000000000000
%f  0.0000000  0.000000000  0.00000000000  0.000000000000000
%i    0    0    0    0      0      0      0      0         0
%i    0    0    0    0      0      0      0      0         0
/* Center for Orbit Determination in Europe (CODE)          
/* Ultra-rapid GRE orbits starting year-day 22089 06 hour   
/* Observed/predicted: 25/23 hours (data used up to 090G)   
/* PCV:IGS14      OL/AL:FES2014b NONE     YN ORB:CoN CLK:BRD
*  2022  3 31 20  5  0.00000000
PG01  13650.996103  -5673.702663  21746.031568    395.687590               P   P
PG02 -14259.800236 -16595.538274 -14298.843251   -652.808631               P   P
PG03  22457.187771 -11914.045291   7385.496067   -187.677002               P   P
PG04  22242.925566  -1677.278540 -14473.787551   -179.544322               P   P
PG05 -18624.442040  -1330.771275 -19108.203938    -76.660626               P   P
PG06  -5473.953097 -25864.803473  -1978.152746    250.493146               P   P
PG07   6740.556712 -21041.964743 -13977.541342    318.572885               P   P
PG08  25693.664071   5158.227290   5334.406469    -62.067090               P   P
PG09  13432.930562 -10567.719851 -20403.452056   -346.573814               P   P
PG10  -5717.115904  19656.536032  16906.465899   -364.270869               P   P
PG11 -12712.998391 -17486.359155 -15444.155002    -51.981498               P   P
PG12 -23086.793970   7828.276885  10117.238181   -193.361019               P   P
PG13 -22978.104553 -13450.315378  -1341.193903    286.257698               P   P
PG14   7424.277180 -19843.973340  15962.344279    -98.894055               P   P
PG15 -26021.022680  -2138.782713   5310.604765    -72.490368               P   P
PG16  15598.331069   6672.017988 -20819.625327   -486.856478               P   P
PG17  -3301.363789 -16763.026742  20754.442261    594.479148               P   P
PG18  -7031.029606  21003.850179 -14584.289002    206.714676               P   P
PG19 -11095.433886 -17785.635252  16164.689382    138.354155               P   P
PG20 -12113.549912  -9873.422443 -21467.175705    516.043864               P   P
PG21  16476.352651   6036.604697  20773.118998    160.003947               P   P
PG22  13580.769299  17853.212641  14771.929116    236.162099               P   P
PG23 -15244.208239  20268.661134   7712.152761    -11.382506               P   P
PG24 -15694.881530   1428.830070  21106.021369    262.266689               P   P
PG25 -19502.563119  17749.333649  -1697.875944    305.865847               P   P
PG26   5843.016830  15405.182569 -20867.739590    195.154978               P   P
PG27  22736.925306  12900.305435  -5981.980736    171.035199               P   P
PG28   -656.973210 -16968.592894  20994.417670    374.486753               P   P
PG29 -15314.102712   7843.685601 -20301.225856   -497.840608               P   P
PG30   1212.687889 -25529.534391  -6663.117645   -521.567148               P   P
PG31   6913.742963  24957.228019  -4768.707742   -171.406334               P   P
PG32   7384.063953  17073.084599  19167.623391    -95.910471               P   P
PR01 -24883.186227   4529.888971   3380.680027      7.490658               P   P
PR02 -12143.862686  10440.769026  19880.007812    514.194046               P   P
PR03   6996.546565  10045.643004  22435.403889     54.118847               P   P
PR04  21862.747970   3970.289326  12567.737528    134.490999               P   P
PR05  24816.731982  -4133.429588  -4263.638531     90.365542               P   P
PR07  -7683.407140  -9864.725992 -22181.655913     33.291988               P   P
PR08 -21963.660079  -3848.462932 -12303.256640    -64.306927               P   P
PR09  10508.305199 -23187.793552   -764.944613     47.325142               P   P
PR12 -14494.422298  12352.506906  16979.473345     17.677434               P   P
PR13 -11092.856800  22880.541585   1988.827249    -20.195797               P   P
PR14   -804.598297  20202.698583 -15554.950223     75.988839               P   P
PR15   9505.341298   5702.061345 -22959.411263     97.176915               P   P
PR17  11258.379824  21719.035205  -7164.720417    513.935418               P   P
PR18  16769.017498  16651.704589   9692.006234    112.089911               P   P
PR19  13841.385654   4181.352450  21014.248891   -183.671333               P   P
PR21 -11974.744616 -21790.020780   5739.553550   -289.709521               P   P
PR24  -1246.483230  15138.622453 -20475.272958     86.956295               P   P
PE01  23352.076353  -8758.876692 -15953.367933   -607.536394               P   P
PE02 -23362.951887   8895.890181  15826.900519    289.852532               P   P
PE03 -28264.117697   -341.818890   8808.314385   -543.208392               P   P
PE04  15468.648925 -12293.687963 -22030.211871   -996.602615               P   P
PE05 -24680.625571 -13028.111383  -9858.069674   -195.144555               P   P
PE07   6783.995564  17961.601002  22536.111098   -653.963183               P   P
PE08 -15056.102231  12407.153407  22269.217112   -504.573299               P   P
PE09  -7130.039592 -17803.932343 -22542.419940   -468.452782               P   P
PE10   1007.026276 -26303.594918  13527.813185   -503.861978               P   P
PE11  -6112.442790 -28691.577782   3850.329240   4083.925358               P   P
PE12   7849.246256 -19882.525886  20463.584636   4685.755371               P   P
PE13   5749.345366  28686.879337  -4537.325327    427.690099               P   P
PE14 -28881.240213  -9132.104916  -4174.858471  -1797.887470               P   P
PE15  -7813.443149  19788.871589 -20579.433739    754.434108               P   P
PE18  20644.907919  15002.516987  -5852.307504  -1618.569040               P   P
PE19  28774.112174   2176.028509  -6596.111336  -2247.462032               P   P
PE21  14477.936713   8754.621461 -24294.710177   -725.777112               P   P
PE24   4464.375588 -22794.656361  18345.118234   -535.871588               P   P
PE25 -14267.468862  -9002.076145  24321.061081   -568.766579               P   P
PE26  16163.601941  19906.270370  14796.126011   -977.052033               P   P
PE27  -3201.156053  22321.214068 -19170.767816   -265.800445               P   P
PE30 -19500.971749  22182.018222  -1826.896853   -393.655026               P   P
PE31  18857.062160 -22648.442314   2808.291700   -494.370371               P   P
PE33  16719.090151    761.238818  24420.830393   -458.037815               P   P
PE34 -16672.245449   -479.862060 -24458.574762   -509.679537               P   P
PE36 -15838.238970 -20669.604090 -14056.719973   -353.179748               P   P
EOF
